CCSDS_OMM_VERS = 2.0
CREATION_DATE  = 
ORIGINATOR     = 

OBJECT_NAME    = QIANFAN-99
OBJECT_ID      = 2025-233J
CENTER_NAME    = EARTH
REF_FRAME      = TEME
TIME_SYSTEM    = UTC
MEAN_ELEMENT_THEORY = SGP/SGP4

EPOCH          = 2025-11-10T21:32:51.018144
MEAN_MOTION    = 14.26210457
ECCENTRICITY   = .00159046
INCLINATION    = 88.9956
RA_OF_ASC_NODE = 65.6958
ARG_OF_PERICENTER = 134.4008
MEAN_ANOMALY   = 225.8491

EPHEMERIS_TYPE = 0
CLASSIFICATION_TYPE = U
NORAD_CAT_ID   = 66041
ELEMENT_SET_NO = 999
REV_AT_EPOCH   = 350
BSTAR          = .39375979E-3
MEAN_MOTION_DOT = .959E-5
MEAN_MOTION_DDOT = 0

CCSDS_OMM_VERS = 2.0
CREATION_DATE  = 
ORIGINATOR     = 

OBJECT_NAME    = QIANFAN-100
OBJECT_ID      = 2025-233K
CENTER_NAME    = EARTH
REF_FRAME      = TEME
TIME_SYSTEM    = UTC
MEAN_ELEMENT_THEORY = SGP/SGP4

EPOCH          = 2025-11-10T21:32:38.997312
MEAN_MOTION    = 14.26225909
ECCENTRICITY   = .00163581
INCLINATION    = 88.9957
RA_OF_ASC_NODE = 65.6960
ARG_OF_PERICENTER = 135.9621
MEAN_ANOMALY   = 224.2879

EPHEMERIS_TYPE = 0
CLASSIFICATION_TYPE = U
NORAD_CAT_ID   = 66042
ELEMENT_SET_NO = 999
REV_AT_EPOCH   = 350
BSTAR          = .38924636E-3
MEAN_MOTION_DOT = .948E-5
MEAN_MOTION_DDOT = 0

CCSDS_OMM_VERS = 2.0
CREATION_DATE  = 
ORIGINATOR     = 

OBJECT_NAME    = QIANFAN-101
OBJECT_ID      = 2025-233L
CENTER_NAME    = EARTH
REF_FRAME      = TEME
TIME_SYSTEM    = UTC
MEAN_ELEMENT_THEORY = SGP/SGP4

EPOCH          = 2025-11-10T21:26:36.332448
MEAN_MOTION    = 14.26641390
ECCENTRICITY   = .00163583
INCLINATION    = 88.9957
RA_OF_ASC_NODE = 65.6952
ARG_OF_PERICENTER = 134.1567
MEAN_ANOMALY   = 226.0975

EPHEMERIS_TYPE = 0
CLASSIFICATION_TYPE = U
NORAD_CAT_ID   = 66043
ELEMENT_SET_NO = 999
REV_AT_EPOCH   = 350
BSTAR          = .20887024E-3
MEAN_MOTION_DOT = .52E-5
MEAN_MOTION_DDOT = 0

CCSDS_OMM_VERS = 2.0
CREATION_DATE  = 
ORIGINATOR     = 

OBJECT_NAME    = QIANFAN-102
OBJECT_ID      = 2025-233M
CENTER_NAME    = EARTH
REF_FRAME      = TEME
TIME_SYSTEM    = UTC
MEAN_ELEMENT_THEORY = SGP/SGP4

EPOCH          = 2025-11-10T21:32:28.305312
MEAN_MOTION    = 14.26230526
ECCENTRICITY   = .00167237
INCLINATION    = 88.9956
RA_OF_ASC_NODE = 65.6958
ARG_OF_PERICENTER = 136.0330
MEAN_ANOMALY   = 224.2198

EPHEMERIS_TYPE = 0
CLASSIFICATION_TYPE = U
NORAD_CAT_ID   = 66044
ELEMENT_SET_NO = 999
REV_AT_EPOCH   = 350
BSTAR          = .40235914E-3
MEAN_MOTION_DOT = .98E-5
MEAN_MOTION_DDOT = 0

CCSDS_OMM_VERS = 2.0
CREATION_DATE  = 
ORIGINATOR     = 

OBJECT_NAME    = QIANFAN-103
OBJECT_ID      = 2025-233N
CENTER_NAME    = EARTH
REF_FRAME      = TEME
TIME_SYSTEM    = UTC
MEAN_ELEMENT_THEORY = SGP/SGP4

EPOCH          = 2025-11-10T21:31:52.222944
MEAN_MOTION    = 14.26259722
ECCENTRICITY   = .00161091
INCLINATION    = 88.9956
RA_OF_ASC_NODE = 65.6960
ARG_OF_PERICENTER = 134.9103
MEAN_ANOMALY   = 225.3401

EPHEMERIS_TYPE = 0
CLASSIFICATION_TYPE = U
NORAD_CAT_ID   = 66045
ELEMENT_SET_NO = 999
REV_AT_EPOCH   = 350
BSTAR          = .40260968E-3
MEAN_MOTION_DOT = .981E-5
MEAN_MOTION_DDOT = 0

CCSDS_OMM_VERS = 2.0
CREATION_DATE  = 
ORIGINATOR     = 

OBJECT_NAME    = QIANFAN-104
OBJECT_ID      = 2025-233P
CENTER_NAME    = EARTH
REF_FRAME      = TEME
TIME_SYSTEM    = UTC
MEAN_ELEMENT_THEORY = SGP/SGP4

EPOCH          = 2025-11-10T21:31:26.009184
MEAN_MOTION    = 14.26280392
ECCENTRICITY   = .00161018
INCLINATION    = 88.9957
RA_OF_ASC_NODE = 65.6959
ARG_OF_PERICENTER = 137.1071
MEAN_ANOMALY   = 223.1382

EPHEMERIS_TYPE = 0
CLASSIFICATION_TYPE = U
NORAD_CAT_ID   = 66046
ELEMENT_SET_NO = 999
REV_AT_EPOCH   = 350
BSTAR          = .39107627E-3
MEAN_MOTION_DOT = .953E-5
MEAN_MOTION_DDOT = 0

CCSDS_OMM_VERS = 2.0
CREATION_DATE  = 
ORIGINATOR     = 

OBJECT_NAME    = QIANFAN-105
OBJECT_ID      = 2025-233Q
CENTER_NAME    = EARTH
REF_FRAME      = TEME
TIME_SYSTEM    = UTC
MEAN_ELEMENT_THEORY = SGP/SGP4

EPOCH          = 2025-11-10T21:30:33.103008
MEAN_MOTION    = 14.26338690
ECCENTRICITY   = .00162959
INCLINATION    = 88.9956
RA_OF_ASC_NODE = 65.6956
ARG_OF_PERICENTER = 137.1809
MEAN_ANOMALY   = 223.0657

EPHEMERIS_TYPE = 0
CLASSIFICATION_TYPE = U
NORAD_CAT_ID   = 66047
ELEMENT_SET_NO = 999
REV_AT_EPOCH   = 350
BSTAR          = .39795371E-3
MEAN_MOTION_DOT = .971E-5
MEAN_MOTION_DDOT = 0

CCSDS_OMM_VERS = 2.0
CREATION_DATE  = 
ORIGINATOR     = 

OBJECT_NAME    = QIANFAN-106
OBJECT_ID      = 2025-233R
CENTER_NAME    = EARTH
REF_FRAME      = TEME
TIME_SYSTEM    = UTC
MEAN_ELEMENT_THEORY = SGP/SGP4

EPOCH          = 2025-11-10T21:30:40.987872
MEAN_MOTION    = 14.26321854
ECCENTRICITY   = .00161739
INCLINATION    = 88.9956
RA_OF_ASC_NODE = 65.6957
ARG_OF_PERICENTER = 136.9017
MEAN_ANOMALY   = 223.3447

EPHEMERIS_TYPE = 0
CLASSIFICATION_TYPE = U
NORAD_CAT_ID   = 66048
ELEMENT_SET_NO = 999
REV_AT_EPOCH   = 350
BSTAR          = .39025514E-3
MEAN_MOTION_DOT = .952E-5
MEAN_MOTION_DDOT = 0

CCSDS_OMM_VERS = 2.0
CREATION_DATE  = 
ORIGINATOR     = 

OBJECT_NAME    = QIANFAN-107
OBJECT_ID      = 2025-233S
CENTER_NAME    = EARTH
REF_FRAME      = TEME
TIME_SYSTEM    = UTC
MEAN_ELEMENT_THEORY = SGP/SGP4

EPOCH          = 2025-11-10T21:30:13.558464
MEAN_MOTION    = 14.26350756
ECCENTRICITY   = .00169494
INCLINATION    = 88.9956
RA_OF_ASC_NODE = 65.6955
ARG_OF_PERICENTER = 135.0330
MEAN_ANOMALY   = 225.2240

EPHEMERIS_TYPE = 0
CLASSIFICATION_TYPE = U
NORAD_CAT_ID   = 66049
ELEMENT_SET_NO = 999
REV_AT_EPOCH   = 350
BSTAR          = .3886615E-3
MEAN_MOTION_DOT = .949E-5
MEAN_MOTION_DDOT = 0

CCSDS_OMM_VERS = 2.0
CREATION_DATE  = 
ORIGINATOR     = 

OBJECT_NAME    = QIANFAN-108
OBJECT_ID      = 2025-233T
CENTER_NAME    = EARTH
REF_FRAME      = TEME
TIME_SYSTEM    = UTC
MEAN_ELEMENT_THEORY = SGP/SGP4

EPOCH          = 2025-11-10T21:29:46.664736
MEAN_MOTION    = 14.26363758
ECCENTRICITY   = .00169269
INCLINATION    = 88.9956
RA_OF_ASC_NODE = 65.6954
ARG_OF_PERICENTER = 136.6767
MEAN_ANOMALY   = 223.5761

EPHEMERIS_TYPE = 0
CLASSIFICATION_TYPE = U
NORAD_CAT_ID   = 66050
ELEMENT_SET_NO = 999
REV_AT_EPOCH   = 350
BSTAR          = .38969934E-3
MEAN_MOTION_DOT = .952E-5
MEAN_MOTION_DDOT = 0

CCSDS_OMM_VERS = 2.0
CREATION_DATE  = 
ORIGINATOR     = 

OBJECT_NAME    = CZ-6A R/B
OBJECT_ID      = 2025-233U
CENTER_NAME    = EARTH
REF_FRAME      = TEME
TIME_SYSTEM    = UTC
MEAN_ELEMENT_THEORY = SGP/SGP4

EPOCH          = 2025-11-10T22:21:05.095872
MEAN_MOTION    = 14.57019387
ECCENTRICITY   = .00851566
INCLINATION    = 89.0295
RA_OF_ASC_NODE = 65.6105
ARG_OF_PERICENTER = 35.8757
MEAN_ANOMALY   = 324.8131

EPHEMERIS_TYPE = 0
CLASSIFICATION_TYPE = U
NORAD_CAT_ID   = 66051
ELEMENT_SET_NO = 999
REV_AT_EPOCH   = 358
BSTAR          = .11092835E-3
MEAN_MOTION_DOT = .542E-5
MEAN_MOTION_DDOT = 0

CCSDS_OMM_VERS = 2.0
CREATION_DATE  = 
ORIGINATOR     = 

OBJECT_NAME    = 2025-234A
OBJECT_ID      = 2025-234A
CENTER_NAME    = EARTH
REF_FRAME      = TEME
TIME_SYSTEM    = UTC
MEAN_ELEMENT_THEORY = SGP/SGP4

EPOCH          = 2025-11-10T22:31:03.334656
MEAN_MOTION    = 15.22871476
ECCENTRICITY   = .00146964
INCLINATION    = 97.4599
RA_OF_ASC_NODE = 20.4324
ARG_OF_PERICENTER = 205.7115
MEAN_ANOMALY   = 154.3393

EPHEMERIS_TYPE = 0
CLASSIFICATION_TYPE = U
NORAD_CAT_ID   = 66053
ELEMENT_SET_NO = 999
REV_AT_EPOCH   = 347
BSTAR          = .16989298E-2
MEAN_MOTION_DOT = .40022E-3
MEAN_MOTION_DDOT = 0

