QIANFAN-99              
1 66041U 25233J   25314.89781271  .00000959  00000+0  39376-3 0  9993
2 66041  88.9956  65.6958 0015904 134.4008 225.8491 14.26210457  3503
QIANFAN-100             
1 66042U 25233K   25314.89767358  .00000948  00000+0  38925-3 0  9991
2 66042  88.9957  65.6960 0016358 135.9621 224.2879 14.26225909  3500
QIANFAN-101             
1 66043U 25233L   25314.89347607  .00000520  00000+0  20887-3 0  9997
2 66043  88.9957  65.6952 0016358 134.1567 226.0975 14.26641390  3505
QIANFAN-102             
1 66044U 25233M   25314.89754983  .00000980  00000+0  40236-3 0  9997
2 66044  88.9956  65.6958 0016723 136.0330 224.2198 14.26230526  3508
QIANFAN-103             
1 66045U 25233N   25314.89713221  .00000981  00000+0  40261-3 0  9997
2 66045  88.9956  65.6960 0016109 134.9103 225.3401 14.26259722  3503
QIANFAN-104             
1 66046U 25233P   25314.89682881  .00000953  00000+0  39108-3 0  9992
2 66046  88.9957  65.6959 0016101 137.1071 223.1382 14.26280392  3505
QIANFAN-105             
1 66047U 25233Q   25314.89621647  .00000971  00000+0  39795-3 0  9998
2 66047  88.9956  65.6956 0016295 137.1809 223.0657 14.26338690  3504
QIANFAN-106             
1 66048U 25233R   25314.89630773  .00000952  00000+0  39026-3 0  9995
2 66048  88.9956  65.6957 0016173 136.9017 223.3447 14.26321854  3503
QIANFAN-107             
1 66049U 25233S   25314.89599026  .00000949  00000+0  38866-3 0  9998
2 66049  88.9956  65.6955 0016949 135.0330 225.2240 14.26350756  3506
QIANFAN-108             
1 66050U 25233T   25314.89567899  .00000952  00000+0  38970-3 0  9993
2 66050  88.9956  65.6954 0016926 136.6767 223.5761 14.26363758  3508
CZ-6A R/B               
1 66051U 25233U   25314.93130898  .00000542  00000+0  11093-3 0  9996
2 66051  89.0295  65.6105 0085156  35.8757 324.8131 14.57019387  3589
2025-234A               
1 66053U 25234A   25314.93823304  .00040022  00000+0  16989-2 0  9995
2 66053  97.4599  20.4324 0014696 205.7115 154.3393 15.22871476  3472
